{
  "type": "FeatureCollection",
  "features": [
    {
      "type": "Feature",
      "properties": {
        "norad_id": 66648,
        "name": "COSMOS 2598 (RODNIK-S 23)",
        "group": "last-30-days",
        "lat": 47.27634787890724,
        "lon": 97.50289744264313,
        "alt_km": 1489.9464437482757,
        "timestamp": "2025-12-13T22:39:28.444933+00:00",
        "meta_object_name": "COSMOS 2598 (RODNIK-S 23)",
        "meta_object_id": "2025-273B",
        "meta_epoch": "2025-12-13T06:29:51.535104",
        "meta_mean_motion": 12.4323332,
        "meta_eccentricity": 0.00079944,
        "meta_inclination": 82.5022,
        "meta_ra_of_asc_node": 286.1192,
        "meta_arg_of_pericenter": 235.7621,
        "meta_mean_anomaly": 124.2702,
        "meta_ephemeris_type": 0,
        "meta_classification_type": "U",
        "meta_norad_cat_id": 66648,
        "meta_element_set_no": 999,
        "meta_rev_at_epoch": 220,
        "meta_bstar": -4.7534655e-05,
        "meta_mean_motion_dot": 3e-08,
        "meta_mean_motion_ddot": 0,
        "tle_line1": "1 66648U 25273B   25347.27073536  .00000003  00000+0 -47535-4 0  9994",
        "tle_line2": "2 66648  82.5022 286.1192 0007994 235.7621 124.2702 12.43233320  2200"
      },
      "geometry": {
        "type": "Point",
        "coordinates": [
          97.50289744264313,
          47.27634787890724
        ]
      }
    },
    {
      "type": "Feature",
      "properties": {
        "norad_id": 66649,
        "name": "COSMOS 2599 (RODNIK-S 24)",
        "group": "last-30-days",
        "lat": 67.60147096492571,
        "lon": -55.65205049124182,
        "alt_km": 1499.5561686176343,
        "timestamp": "2025-12-13T22:39:28.444943+00:00",
        "meta_object_name": "COSMOS 2599 (RODNIK-S 24)",
        "meta_object_id": "2025-273C",
        "meta_epoch": "2025-12-13T06:48:40.072032",
        "meta_mean_motion": 12.41150952,
        "meta_eccentricity": 0.00063184,
        "meta_inclination": 82.5045,
        "meta_ra_of_asc_node": 286.1295,
        "meta_arg_of_pericenter": 277.3968,
        "meta_mean_anomaly": 82.6393,
        "meta_ephemeris_type": 0,
        "meta_classification_type": "U",
        "meta_norad_cat_id": 66649,
        "meta_element_set_no": 999,
        "meta_rev_at_epoch": 220,
        "meta_bstar": 0.00010130679,
        "meta_mean_motion_dot": 2.4e-07,
        "meta_mean_motion_ddot": 0,
        "tle_line1": "1 66649U 25273C   25347.28379713  .00000024  00000+0  10131-3 0  9995",
        "tle_line2": "2 66649  82.5045 286.1295 0006318 277.3968  82.6393 12.41150952  2205"
      },
      "geometry": {
        "type": "Point",
        "coordinates": [
          -55.65205049124182,
          67.60147096492571
        ]
      }
    },
    {
      "type": "Feature",
      "properties": {
        "norad_id": 66650,
        "name": "BEE-1000",
        "group": "last-30-days",
        "lat": -80.67211114293069,
        "lon": -29.00820108652454,
        "alt_km": 593.7088417966334,
        "timestamp": "2025-12-13T22:39:28.444957+00:00",
        "meta_object_name": "BEE-1000",
        "meta_object_id": "2025-274A",
        "meta_epoch": "2025-12-13T06:56:16.772064",
        "meta_mean_motion": 14.91666733,
        "meta_eccentricity": 0.00103644,
        "meta_inclination": 97.7387,
        "meta_ra_of_asc_node": 274.4666,
        "meta_arg_of_pericenter": 249.2427,
        "meta_mean_anomaly": 110.7682,
        "meta_ephemeris_type": 0,
        "meta_classification_type": "U",
        "meta_norad_cat_id": 66650,
        "meta_element_set_no": 999,
        "meta_rev_at_epoch": 248,
        "meta_bstar": 0.00032925068,
        "meta_mean_motion_dot": 3.257e-05,
        "meta_mean_motion_ddot": 0,
        "tle_line1": "1 66650U 25274A   25347.28908301  .00003257  00000+0  32925-3 0  9995",
        "tle_line2": "2 66650  97.7387 274.4666 0010364 249.2427 110.7682 14.91666733  2480"
      },
      "geometry": {
        "type": "Point",
        "coordinates": [
          -29.00820108652454,
          -80.67211114293069
        ]
      }
    },
    {
      "type": "Feature",
      "properties": {
        "norad_id": 66651,
        "name": "2025-274B",
        "group": "last-30-days",
        "lat": -76.73583033491211,
        "lon": -49.66088626120281,
        "alt_km": 593.5535006784903,
        "timestamp": "2025-12-13T22:39:28.444967+00:00",
        "meta_object_name": "2025-274B",
        "meta_object_id": "2025-274B",
        "meta_epoch": "2025-12-13T06:54:52.283232",
        "meta_mean_motion": 14.91808403,
        "meta_eccentricity": 0.00105723,
        "meta_inclination": 97.7382,
        "meta_ra_of_asc_node": 274.4671,
        "meta_arg_of_pericenter": 248.1887,
        "meta_mean_anomaly": 111.8207,
        "meta_ephemeris_type": 0,
        "meta_classification_type": "U",
        "meta_norad_cat_id": 66651,
        "meta_element_set_no": 999,
        "meta_rev_at_epoch": 248,
        "meta_bstar": 0.00068707612,
        "meta_mean_motion_dot": 6.886e-05,
        "meta_mean_motion_ddot": 0,
        "tle_line1": "1 66651U 25274B   25347.28810513  .00006886  00000+0  68708-3 0  9992",
        "tle_line2": "2 66651  97.7382 274.4671 0010572 248.1887 111.8207 14.91808403  2488"
      },
      "geometry": {
        "type": "Point",
        "coordinates": [
          -49.66088626120281,
          -76.73583033491211
        ]
      }
    },
    {
      "type": "Feature",
      "properties": {
        "norad_id": 66652,
        "name": "2025-274C",
        "group": "last-30-days",
        "lat": -69.6250502769539,
        "lon": -63.406288075304715,
        "alt_km": 593.450527850433,
        "timestamp": "2025-12-13T22:39:28.444978+00:00",
        "meta_object_name": "2025-274C",
        "meta_object_id": "2025-274C",
        "meta_epoch": "2025-12-13T06:52:45.115392",
        "meta_mean_motion": 14.91903917,
        "meta_eccentricity": 0.0010293,
        "meta_inclination": 97.7388,
        "meta_ra_of_asc_node": 274.4699,
        "meta_arg_of_pericenter": 255.2589,
        "meta_mean_anomaly": 104.7489,
        "meta_ephemeris_type": 0,
        "meta_classification_type": "U",
        "meta_norad_cat_id": 66652,
        "meta_element_set_no": 999,
        "meta_rev_at_epoch": 248,
        "meta_bstar": 0.00043544219,
        "meta_mean_motion_dot": 4.352e-05,
        "meta_mean_motion_ddot": 0,
        "tle_line1": "1 66652U 25274C   25347.28663328  .00004352  00000+0  43544-3 0  9990",
        "tle_line2": "2 66652  97.7388 274.4699 0010293 255.2589 104.7489 14.91903917  2482"
      },
      "geometry": {
        "type": "Point",
        "coordinates": [
          -63.406288075304715,
          -69.6250502769539
        ]
      }
    },
    {
      "type": "Feature",
      "properties": {
        "norad_id": 66653,
        "name": "2025-274D",
        "group": "last-30-days",
        "lat": -69.21037121132207,
        "lon": -63.8964529168616,
        "alt_km": 593.309347888372,
        "timestamp": "2025-12-13T22:39:28.444987+00:00",
        "meta_object_name": "2025-274D",
        "meta_object_id": "2025-274D",
        "meta_epoch": "2025-12-13T06:52:38.371008",
        "meta_mean_motion": 14.91913787,
        "meta_eccentricity": 0.00111413,
        "meta_inclination": 97.7386,
        "meta_ra_of_asc_node": 274.4698,
        "meta_arg_of_pericenter": 251.2144,
        "meta_mean_anomaly": 108.7867,
        "meta_ephemeris_type": 0,
        "meta_classification_type": "U",
        "meta_norad_cat_id": 66653,
        "meta_element_set_no": 999,
        "meta_rev_at_epoch": 248,
        "meta_bstar": 0.00048994957,
        "meta_mean_motion_dot": 4.906e-05,
        "meta_mean_motion_ddot": 0,
        "tle_line1": "1 66653U 25274D   25347.28655522  .00004906  00000+0  48995-3 0  9998",
        "tle_line2": "2 66653  97.7386 274.4698 0011141 251.2144 108.7867 14.91913787  2486"
      },
      "geometry": {
        "type": "Point",
        "coordinates": [
          -63.8964529168616,
          -69.21037121132207
        ]
      }
    },
    {
      "type": "Feature",
      "properties": {
        "norad_id": 66654,
        "name": "JACK E",
        "group": "last-30-days",
        "lat": -59.30893605100755,
        "lon": -71.63540209890273,
        "alt_km": 593.1588152196764,
        "timestamp": "2025-12-13T22:39:28.445001+00:00",
        "meta_object_name": "JACK E",
        "meta_object_id": "2025-274E",
        "meta_epoch": "2025-12-12T17:57:23.787072",
        "meta_mean_motion": 14.92083468,
        "meta_eccentricity": 0.00117279,
        "meta_inclination": 97.7387,
        "meta_ra_of_asc_node": 273.9456,
        "meta_arg_of_pericenter": 255.0239,
        "meta_mean_anomaly": 104.9682,
        "meta_ephemeris_type": 0,
        "meta_classification_type": "U",
        "meta_norad_cat_id": 66654,
        "meta_element_set_no": 999,
        "meta_rev_at_epoch": 240,
        "meta_bstar": 0.00049140414,
        "meta_mean_motion_dot": 4.943e-05,
        "meta_mean_motion_ddot": 0,
        "tle_line1": "1 66654U 25274E   25346.74819198  .00004943  00000+0  49140-3 0  9994",
        "tle_line2": "2 66654  97.7387 273.9456 0011727 255.0239 104.9682 14.92083468  2401"
      },
      "geometry": {
        "type": "Point",
        "coordinates": [
          -71.63540209890273,
          -59.30893605100755
        ]
      }
    }
  ]
}